[{"OBJECT_NAME":"SL-8 R/B","OBJECT_ID":"1979-089B","EPOCH":"2026-03-20T21:53:46.532832","MEAN_MOTION":14.42356856,"ECCENTRICITY":0.00169753,"INCLINATION":74.0674,"RA_OF_ASC_NODE":70.2668,"ARG_OF_PERICENTER":241.6819,"MEAN_ANOMALY":118.2625,"EPHEMERIS_TYPE":0,"CLASSIFICATION_TYPE":"U","NORAD_CAT_ID":11574,"ELEMENT_SET_NO":999,"REV_AT_EPOCH":43772,"BSTAR":5.0760349e-5,"MEAN_MOTION_DOT":1.41e-6,"MEAN_MOTION_DDOT":0},{"OBJECT_NAME":"SL-14 R/B","OBJECT_ID":"1980-005B","EPOCH":"2026-03-20T07:57:33.505056","MEAN_MOTION":14.90941572,"ECCENTRICITY":0.00169606,"INCLINATION":82.5124,"RA_OF_ASC_NODE":297.1403,"ARG_OF_PERICENTER":124.7812,"MEAN_ANOMALY":235.5007,"EPHEMERIS_TYPE":0,"CLASSIFICATION_TYPE":"U","NORAD_CAT_ID":11672,"ELEMENT_SET_NO":999,"REV_AT_EPOCH":47807,"BSTAR":4.385498e-5,"MEAN_MOTION_DOT":4.59e-6,"MEAN_MOTION_DDOT":0},{"OBJECT_NAME":"SL-8 R/B","OBJECT_ID":"1981-003B","EPOCH":"2026-03-20T19:03:24.276672","MEAN_MOTION":15.11419752,"ECCENTRICITY":0.02614114,"INCLINATION":82.9353,"RA_OF_ASC_NODE":279.7531,"ARG_OF_PERICENTER":139.9332,"MEAN_ANOMALY":222.1513,"EPHEMERIS_TYPE":0,"CLASSIFICATION_TYPE":"U","NORAD_CAT_ID":12139,"ELEMENT_SET_NO":999,"REV_AT_EPOCH":31635,"BSTAR":0.00054383295,"MEAN_MOTION_DOT":0.0002147,"MEAN_MOTION_DDOT":0},{"OBJECT_NAME":"SL-3 R/B","OBJECT_ID":"1981-046B","EPOCH":"2026-03-20T22:40:28.892640","MEAN_MOTION":15.42252532,"ECCENTRICITY":0.00186924,"INCLINATION":81.2279,"RA_OF_ASC_NODE":276.2243,"ARG_OF_PERICENTER":342.9336,"MEAN_ANOMALY":17.1276,"EPHEMERIS_TYPE":0,"CLASSIFICATION_TYPE":"U","NORAD_CAT_ID":12465,"ELEMENT_SET_NO":999,"REV_AT_EPOCH":44016,"BSTAR":0.00024994952,"MEAN_MOTION_DOT":0.00010842,"MEAN_MOTION_DDOT":0},{"OBJECT_NAME":"SL-3 R/B","OBJECT_ID":"1981-103B","EPOCH":"2026-03-20T21:17:15.413280","MEAN_MOTION":15.21501262,"ECCENTRICITY":0.00124274,"INCLINATION":81.1606,"RA_OF_ASC_NODE":200.2969,"ARG_OF_PERICENTER":246.1352,"MEAN_ANOMALY":113.8578,"EPHEMERIS_TYPE":0,"CLASSIFICATION_TYPE":"U","NORAD_CAT_ID":12904,"ELEMENT_SET_NO":999,"REV_AT_EPOCH":97493,"BSTAR":0.00023641029,"MEAN_MOTION_DOT":5.353e-5,"MEAN_MOTION_DDOT":0},{"OBJECT_NAME":"SL-3 R/B","OBJECT_ID":"1982-013B","EPOCH":"2026-03-20T21:22:17.704416","MEAN_MOTION":15.22114112,"ECCENTRICITY":0.00232312,"INCLINATION":81.1748,"RA_OF_ASC_NODE":147.6433,"ARG_OF_PERICENTER":140.3454,"MEAN_ANOMALY":219.9482,"EPHEMERIS_TYPE":0,"CLASSIFICATION_TYPE":"U","NORAD_CAT_ID":13068,"ELEMENT_SET_NO":999,"REV_AT_EPOCH":40605,"BSTAR":0.00014472991,"MEAN_MOTION_DOT":3.365e-5,"MEAN_MOTION_DDOT":0},{"OBJECT_NAME":"SL-3 R/B","OBJECT_ID":"1982-039B","EPOCH":"2026-03-20T22:06:21.383712","MEAN_MOTION":15.10139773,"ECCENTRICITY":0.00291502,"INCLINATION":81.1579,"RA_OF_ASC_NODE":203.0122,"ARG_OF_PERICENTER":287.5846,"MEAN_ANOMALY":72.2195,"EPHEMERIS_TYPE":0,"CLASSIFICATION_TYPE":"U","NORAD_CAT_ID":13154,"ELEMENT_SET_NO":999,"REV_AT_EPOCH":38333,"BSTAR":0.0001441098,"MEAN_MOTION_DOT":2.396e-5,"MEAN_MOTION_DDOT":0},{"OBJECT_NAME":"SL-3 R/B","OBJECT_ID":"1982-079B","EPOCH":"2026-03-20T21:18:27.045792","MEAN_MOTION":15.24947143,"ECCENTRICITY":0.00253983,"INCLINATION":81.149,"RA_OF_ASC_NODE":179.8557,"ARG_OF_PERICENTER":127.6649,"MEAN_ANOMALY":232.6894,"EPHEMERIS_TYPE":0,"CLASSIFICATION_TYPE":"U","NORAD_CAT_ID":13403,"ELEMENT_SET_NO":999,"REV_AT_EPOCH":37940,"BSTAR":0.00023686256,"MEAN_MOTION_DOT":5.981e-5,"MEAN_MOTION_DDOT":0},{"OBJECT_NAME":"SL-14 R/B","OBJECT_ID":"1982-092B","EPOCH":"2026-03-20T21:42:33.043968","MEAN_MOTION":14.86676034,"ECCENTRICITY":0.0018753,"INCLINATION":82.5672,"RA_OF_ASC_NODE":130.9093,"ARG_OF_PERICENTER":263.4252,"MEAN_ANOMALY":269.5004,"EPHEMERIS_TYPE":0,"CLASSIFICATION_TYPE":"U","NORAD_CAT_ID":13553,"ELEMENT_SET_NO":999,"REV_AT_EPOCH":33059,"BSTAR":3.9630487e-5,"MEAN_MOTION_DOT":3.77e-6,"MEAN_MOTION_DDOT":0},{"OBJECT_NAME":"SL-3 R/B","OBJECT_ID":"1983-010B","EPOCH":"2026-03-20T21:20:45.413664","MEAN_MOTION":15.46716088,"ECCENTRICITY":0.00169021,"INCLINATION":81.106,"RA_OF_ASC_NODE":348.5149,"ARG_OF_PERICENTER":13.8624,"MEAN_ANOMALY":346.3081,"EPHEMERIS_TYPE":0,"CLASSIFICATION_TYPE":"U","NORAD_CAT_ID":13819,"ELEMENT_SET_NO":999,"REV_AT_EPOCH":35967,"BSTAR":0.00028235022,"MEAN_MOTION_DOT":0.00014228,"MEAN_MOTION_DDOT":0},{"OBJECT_NAME":"SL-3 R/B","OBJECT_ID":"1983-075B","EPOCH":"2026-03-20T22:31:45.776928","MEAN_MOTION":15.3866337,"ECCENTRICITY":0.00213248,"INCLINATION":97.6139,"RA_OF_ASC_NODE":84.9438,"ARG_OF_PERICENTER":184.1006,"MEAN_ANOMALY":176.0067,"EPHEMERIS_TYPE":0,"CLASSIFICATION_TYPE":"U","NORAD_CAT_ID":14208,"ELEMENT_SET_NO":999,"REV_AT_EPOCH":33188,"BSTAR":0.00027383514,"MEAN_MOTION_DOT":0.00010453,"MEAN_MOTION_DDOT":0},{"OBJECT_NAME":"COSMOS 1536","OBJECT_ID":"1984-013A","EPOCH":"2026-03-20T18:01:55.121952","MEAN_MOTION":15.23962261,"ECCENTRICITY":0.00126688,"INCLINATION":82.5412,"RA_OF_ASC_NODE":96.8503,"ARG_OF_PERICENTER":239.3193,"MEAN_ANOMALY":120.6797,"EPHEMERIS_TYPE":0,"CLASSIFICATION_TYPE":"U","NORAD_CAT_ID":14699,"ELEMENT_SET_NO":999,"REV_AT_EPOCH":27430,"BSTAR":0.00024961414,"MEAN_MOTION_DOT":6.082e-5,"MEAN_MOTION_DDOT":0},{"OBJECT_NAME":"SL-14 R/B","OBJECT_ID":"1984-027B","EPOCH":"2026-03-20T22:31:21.716256","MEAN_MOTION":14.859876,"ECCENTRICITY":0.0016628,"INCLINATION":82.54,"RA_OF_ASC_NODE":234.4608,"ARG_OF_PERICENTER":298.5914,"MEAN_ANOMALY":61.3629,"EPHEMERIS_TYPE":0,"CLASSIFICATION_TYPE":"U","NORAD_CAT_ID":14820,"ELEMENT_SET_NO":999,"REV_AT_EPOCH":24930,"BSTAR":4.8095739e-5,"MEAN_MOTION_DOT":4.45e-6,"MEAN_MOTION_DDOT":0},{"OBJECT_NAME":"SL-8 R/B","OBJECT_ID":"1985-006B","EPOCH":"2026-03-20T22:34:17.346720","MEAN_MOTION":14.3779129,"ECCENTRICITY":0.00179859,"INCLINATION":74.0439,"RA_OF_ASC_NODE":240.4438,"ARG_OF_PERICENTER":155.1743,"MEAN_ANOMALY":321.0777,"EPHEMERIS_TYPE":0,"CLASSIFICATION_TYPE":"U","NORAD_CAT_ID":15483,"ELEMENT_SET_NO":999,"REV_AT_EPOCH":15564,"BSTAR":0.00011093257,"MEAN_MOTION_DOT":3.09e-6,"MEAN_MOTION_DDOT":0},{"OBJECT_NAME":"SL-12 R/B(2)","OBJECT_ID":"1985-042D","EPOCH":"2026-03-20T22:48:58.816800","MEAN_MOTION":14.21985305,"ECCENTRICITY":0.00329266,"INCLINATION":71.107,"RA_OF_ASC_NODE":63.935,"ARG_OF_PERICENTER":109.495,"MEAN_ANOMALY":317.7602,"EPHEMERIS_TYPE":0,"CLASSIFICATION_TYPE":"U","NORAD_CAT_ID":15772,"ELEMENT_SET_NO":999,"REV_AT_EPOCH":11599,"BSTAR":3.6170365e-5,"MEAN_MOTION_DOT":3.3e-7,"MEAN_MOTION_DDOT":0},{"OBJECT_NAME":"SL-14 R/B","OBJECT_ID":"1985-069B","EPOCH":"2026-03-20T07:32:06.594144","MEAN_MOTION":14.86444467,"ECCENTRICITY":0.0019425,"INCLINATION":82.53,"RA_OF_ASC_NODE":14.9449,"ARG_OF_PERICENTER":152.8819,"MEAN_ANOMALY":207.3417,"EPHEMERIS_TYPE":0,"CLASSIFICATION_TYPE":"U","NORAD_CAT_ID":15945,"ELEMENT_SET_NO":999,"REV_AT_EPOCH":17441,"BSTAR":4.7606e-5,"MEAN_MOTION_DOT":4.46e-6,"MEAN_MOTION_DDOT":0},{"OBJECT_NAME":"SL-16 R/B","OBJECT_ID":"1985-097B","EPOCH":"2026-03-20T21:11:22.387200","MEAN_MOTION":14.16600808,"ECCENTRICITY":0.00095905,"INCLINATION":71.0013,"RA_OF_ASC_NODE":116.9893,"ARG_OF_PERICENTER":246.3199,"MEAN_ANOMALY":286.5971,"EPHEMERIS_TYPE":0,"CLASSIFICATION_TYPE":"U","NORAD_CAT_ID":16182,"ELEMENT_SET_NO":999,"REV_AT_EPOCH":8881,"BSTAR":0.00016311558,"MEAN_MOTION_DOT":2.78e-6,"MEAN_MOTION_DDOT":0}]
