SL-8 R/B                
1 11574U 79089B   26079.91234413  .00000141  00000+0  50760-4 0  9999
2 11574  74.0674  70.2668 0016975 241.6819 118.2625 14.42356856437728
SL-14 R/B               
1 11672U 80005B   26079.33163779  .00000459  00000+0  43855-4 0  9999
2 11672  82.5124 297.1403 0016960 124.7812 235.5007 14.90941572478074
SL-8 R/B                
1 12139U 81003B   26079.79403098  .00021470  00000+0  54383-3 0  9991
2 12139  82.9353 279.7531 0261411 139.9332 222.1513 15.11419752316357
SL-3 R/B                
1 12465U 81046B   26079.94477885  .00010842  00000+0  24995-3 0  9999
2 12465  81.2279 276.2243 0018692 342.9336  17.1276 15.42252532440161
SL-3 R/B                
1 12904U 81103B   26079.88698395  .00005353  00000+0  23641-3 0  9993
2 12904  81.1606 200.2969 0012427 246.1352 113.8578 15.21501262974937
SL-3 R/B                
1 13068U 82013B   26079.89048269  .00003365  00000+0  14473-3 0  9990
2 13068  81.1748 147.6433 0023231 140.3454 219.9482 15.22114112406059
SL-3 R/B                
1 13154U 82039B   26079.92108083  .00002396  00000+0  14411-3 0  9994
2 13154  81.1579 203.0122 0029150 287.5846  72.2195 15.10139773383337
SL-3 R/B                
1 13403U 82079B   26079.88781303  .00005981  00000+0  23686-3 0  9999
2 13403  81.1490 179.8557 0025398 127.6649 232.6894 15.24947143379407
SL-14 R/B               
1 13553U 82092B   26079.90454912  .00000377  00000+0  39630-4 0  9997
2 13553  82.5672 130.9093 0018753 263.4252 269.5004 14.86676034330593
SL-3 R/B                
1 13819U 83010B   26079.88941451  .00014228  00000+0  28235-3 0  9997
2 13819  81.1060 348.5149 0016902  13.8624 346.3081 15.46716088359677
SL-3 R/B                
1 14208U 83075B   26079.93872427  .00010453  00000+0  27384-3 0  9993
2 14208  97.6139  84.9438 0021324 184.1006 176.0067 15.38663370331882
COSMOS 1536             
1 14699U 84013A   26079.75133243  .00006082  00000+0  24961-3 0  9997
2 14699  82.5412  96.8503 0012668 239.3193 120.6797 15.23962261274302
SL-14 R/B               
1 14820U 84027B   26079.93844579  .00000445  00000+0  48096-4 0  9992
2 14820  82.5400 234.4608 0016628 298.5914  61.3629 14.85987600249307
SL-8 R/B                
1 15483U 85006B   26079.94047855  .00000309  00000+0  11093-3 0  9994
2 15483  74.0439 240.4438 0017985 155.1743 321.0777 14.37791290155642
SL-12 R/B(2)            
1 15772U 85042D   26079.95068075  .00000033  00000+0  36170-4 0  9991
2 15772  71.1070  63.9350 0032926 109.4950 317.7602 14.21985305115995
SL-14 R/B               
1 15945U 85069B   26079.31396521  .00000446  00000+0  47606-4 0  9996
2 15945  82.5300  14.9449 0019425 152.8819 207.3417 14.86444467174419
SL-16 R/B               
1 16182U 85097B   26079.88289800  .00000278  00000+0  16312-3 0  9996
2 16182  71.0013 116.9893 0009590 246.3199 286.5971 14.16600808 88813
